1 51657U 22013B   22173.98821987  .00003774  00000-0  21155-3 0  9997
2 51657  97.5558 182.0588 0011686 163.7101 196.4508 15.13953349 19509
